{"type":"FeatureCollection","attribution":"Data (c) OpenStreetMap contributors, ODbL","generated":"2026-08-31","features":[{"type":"Feature","geometry":{"type":"Point","coordinates":[144.56576,-37.68568]},"properties":{"c":"shops","n":"Coles"}},{"type":"Feature","geometry":{"type":"Point","coordinates":[144.56661,-37.68581]},"properties":{"c":"shops","n":"Woolworths"}},{"type":"Feature","geometry":{"type":"Point","coordinates":[144.55887,-37.68598]},"properties":{"c":"health","n":"Guardian Pharmacy"}},{"type":"Feature","geometry":{"type":"Point","coordinates":[144.58260,-37.68385]},"properties":{"c":"shops","n":"Morgan\u0027s IGA"}},{"type":"Feature","geometry":{"type":"Point","coordinates":[144.57860,-37.68417]},"properties":{"c":"shops","n":"Foodworks"}},{"type":"Feature","geometry":{"type":"Point","coordinates":[144.57087,-37.70249]},"properties":{"c":"bus","n":"Bay 3"}},{"type":"Feature","geometry":{"type":"Point","coordinates":[144.57322,-37.70277]},"properties":{"c":"bus","n":"Bay 1"}},{"type":"Feature","geometry":{"type":"Point","coordinates":[144.57020,-37.70241]},"properties":{"c":"bus","n":"Bay 5"}},{"type":"Feature","geometry":{"type":"Point","coordinates":[144.57114,-37.70252]},"properties":{"c":"bus","n":"Bay 2"}},{"type":"Feature","geometry":{"type":"Point","coordinates":[144.57055,-37.70245]},"properties":{"c":"bus","n":"Melton Station/Brooklyn Rd"}},{"type":"Feature","geometry":{"type":"Point","coordinates":[144.56985,-37.70237]},"properties":{"c":"bus","n":"Bay 6"}},{"type":"Feature","geometry":{"type":"Point","coordinates":[144.60080,-37.65899]},"properties":{"c":"bus","n":"Kurunjang Terminus/Gisborne-Melton Rd"}},{"type":"Feature","geometry":{"type":"Point","coordinates":[144.60060,-37.65664]},"properties":{"c":"bus","n":"Phar Lap Pl/Dalray Cres"}},{"type":"Feature","geometry":{"type":"Point","coordinates":[144.60033,-37.65676]},"properties":{"c":"bus","n":"Phar Lap Pl/Dalray Cres"}},{"type":"Feature","geometry":{"type":"Point","coordinates":[144.59788,-37.65647]},"properties":{"c":"bus","n":"Foxzami Lane/Dalray Cres"}},{"type":"Feature","geometry":{"type":"Point","coordinates":[144.59755,-37.65629]},"properties":{"c":"bus","n":"Foxzami Lane/Dalray Cres"}},{"type":"Feature","geometry":{"type":"Point","coordinates":[144.59455,-37.65750]},"properties":{"c":"bus","n":null}},{"type":"Feature","geometry":{"type":"Point","coordinates":[144.59444,-37.65738]},"properties":{"c":"bus","n":"Archer Dr/Dalray Cres"}},{"type":"Feature","geometry":{"type":"Point","coordinates":[144.59245,-37.65903]},"properties":{"c":"bus","n":"Sirius Way/Dalray Cres"}},{"type":"Feature","geometry":{"type":"Point","coordinates":[144.59249,-37.65923]},"properties":{"c":"bus","n":"Sirius Way/Dalray Cres"}},{"type":"Feature","geometry":{"type":"Point","coordinates":[144.59240,-37.66059]},"properties":{"c":"bus","n":"Kirkton Dr/Skipton St"}},{"type":"Feature","geometry":{"type":"Point","coordinates":[144.59248,-37.66076]},"properties":{"c":"bus","n":"Kirkton Dr/Skipton St"}},{"type":"Feature","geometry":{"type":"Point","coordinates":[144.59279,-37.66228]},"properties":{"c":"bus","n":"Kayla Way/Kirkton Dr"}},{"type":"Feature","geometry":{"type":"Point","coordinates":[144.59261,-37.66237]},"properties":{"c":"bus","n":"Kayla Way/Kirkton Dr"}},{"type":"Feature","geometry":{"type":"Point","coordinates":[144.59334,-37.66536]},"properties":{"c":"bus","n":"Beauview Ct/Kirkton Dr"}},{"type":"Feature","geometry":{"type":"Point","coordinates":[144.59372,-37.66557]},"properties":{"c":"bus","n":"Beauview Ct/Kirkton Dr"}},{"type":"Feature","geometry":{"type":"Point","coordinates":[144.59603,-37.66618]},"properties":{"c":"bus","n":"Maree Ct/Kirkton Dr"}},{"type":"Feature","geometry":{"type":"Point","coordinates":[144.59641,-37.66635]},"properties":{"c":"bus","n":"Maree Ct/Kirkton Dr"}},{"type":"Feature","geometry":{"type":"Point","coordinates":[144.59835,-37.66643]},"properties":{"c":"bus","n":"Roderick Dr/Kirkton Dr"}},{"type":"Feature","geometry":{"type":"Point","coordinates":[144.59844,-37.66660]},"properties":{"c":"bus","n":"Roderick Dr/Kirkton Dr"}},{"type":"Feature","geometry":{"type":"Point","coordinates":[144.59864,-37.67031]},"properties":{"c":"bus","n":"Manning Ave/Gisborne-Melton Rd"}},{"type":"Feature","geometry":{"type":"Point","coordinates":[144.59877,-37.67045]},"properties":{"c":"bus","n":"Manning Ave/Gisborne-Melton Rd"}},{"type":"Feature","geometry":{"type":"Point","coordinates":[144.59838,-37.67242]},"properties":{"c":"bus","n":"Carberry Dr/Gisborne-Melton Rd"}},{"type":"Feature","geometry":{"type":"Point","coordinates":[144.59809,-37.67321]},"properties":{"c":"bus","n":"Carberry Dr/Gisborne-Melton Rd"}},{"type":"Feature","geometry":{"type":"Point","coordinates":[144.59580,-37.67614]},"properties":{"c":"bus","n":"Yuille St/Centenary Ave"}},{"type":"Feature","geometry":{"type":"Point","coordinates":[144.59449,-37.67587]},"properties":{"c":"bus","n":"Riddle Dr/Centenary Ave"}},{"type":"Feature","geometry":{"type":"Point","coordinates":[144.58947,-37.67527]},"properties":{"c":"bus","n":"Raleighs Rd/Centenary Ave"}},{"type":"Feature","geometry":{"type":"Point","coordinates":[144.58892,-37.67531]},"properties":{"c":"bus","n":"Raleighs Rd/Centenary Ave"}},{"type":"Feature","geometry":{"type":"Point","coordinates":[144.58494,-37.67455]},"properties":{"c":"bus","n":"Kurunjang Dr/Centenary Ave"}},{"type":"Feature","geometry":{"type":"Point","coordinates":[144.58502,-37.67484]},"properties":{"c":"bus","n":"Kurunjang Dr/Centenary Ave"}},{"type":"Feature","geometry":{"type":"Point","coordinates":[144.58404,-37.67504]},"properties":{"c":"bus","n":"Burleigh Rd/Palmerston St"}},{"type":"Feature","geometry":{"type":"Point","coordinates":[144.58389,-37.67499]},"properties":{"c":"bus","n":"Burleigh Rd/Palmerston St"}},{"type":"Feature","geometry":{"type":"Point","coordinates":[144.58250,-37.67455]},"properties":{"c":"bus","n":null}},{"type":"Feature","geometry":{"type":"Point","coordinates":[144.58262,-37.67431]},"properties":{"c":"bus","n":null}},{"type":"Feature","geometry":{"type":"Point","coordinates":[144.58049,-37.67404]},"properties":{"c":"bus","n":null}},{"type":"Feature","geometry":{"type":"Point","coordinates":[144.58035,-37.67428]},"properties":{"c":"bus","n":null}},{"type":"Feature","geometry":{"type":"Point","coordinates":[144.58339,-37.67760]},"properties":{"c":"bus","n":"Hudson Pl/Palmerston St"}},{"type":"Feature","geometry":{"type":"Point","coordinates":[144.58358,-37.67751]},"properties":{"c":"bus","n":"Hudson Pl/Palmerston St"}},{"type":"Feature","geometry":{"type":"Point","coordinates":[144.57208,-37.66768]},"properties":{"c":"bus","n":null}},{"type":"Feature","geometry":{"type":"Point","coordinates":[144.57188,-37.66782]},"properties":{"c":"bus","n":null}},{"type":"Feature","geometry":{"type":"Point","coordinates":[144.57436,-37.66857]},"properties":{"c":"bus","n":null}},{"type":"Feature","geometry":{"type":"Point","coordinates":[144.57441,-37.66896]},"properties":{"c":"bus","n":null}},{"type":"Feature","geometry":{"type":"Point","coordinates":[144.57096,-37.67088]},"properties":{"c":"bus","n":null}},{"type":"Feature","geometry":{"type":"Point","coordinates":[144.57572,-37.67137]},"properties":{"c":"bus","n":null}},{"type":"Feature","geometry":{"type":"Point","coordinates":[144.57585,-37.67169]},"properties":{"c":"bus","n":null}},{"type":"Feature","geometry":{"type":"Point","coordinates":[144.57573,-37.67371]},"properties":{"c":"bus","n":"Scott St/Centenary Ave"}},{"type":"Feature","geometry":{"type":"Point","coordinates":[144.57641,-37.67348]},"properties":{"c":"bus","n":"Scott St/Centenary Ave"}},{"type":"Feature","geometry":{"type":"Point","coordinates":[144.54867,-37.66799]},"properties":{"c":"bus","n":"Claret Ash Boulevard / Arnolds Creek Boulevard"}},{"type":"Feature","geometry":{"type":"Point","coordinates":[144.55071,-37.67016]},"properties":{"c":"bus","n":"Gallery Ave/Arnolds Creek Bvd"}},{"type":"Feature","geometry":{"type":"Point","coordinates":[144.55064,-37.67033]},"properties":{"c":"bus","n":"Gallery Ave/Arnolds Creek Bvd"}},{"type":"Feature","geometry":{"type":"Point","coordinates":[144.55177,-37.67409]},"properties":{"c":"bus","n":"Westmelton Dr/Bulmans Rd"}},{"type":"Feature","geometry":{"type":"Point","coordinates":[144.55149,-37.67470]},"properties":{"c":"bus","n":"Sovereign Bvd/Bulmans Rd"}},{"type":"Feature","geometry":{"type":"Point","coordinates":[144.55081,-37.67524]},"properties":{"c":"bus","n":"Bulmans Rd/Sovereign Bvd"}},{"type":"Feature","geometry":{"type":"Point","coordinates":[144.54785,-37.67415]},"properties":{"c":"bus","n":"Stanford Tce/Sovereign Bvd"}},{"type":"Feature","geometry":{"type":"Point","coordinates":[144.54786,-37.67400]},"properties":{"c":"bus","n":"Stanford Tce/Sovereign Bvd"}},{"type":"Feature","geometry":{"type":"Point","coordinates":[144.56273,-37.68788]},"properties":{"c":"bus","n":"Barries Rd"}},{"type":"Feature","geometry":{"type":"Point","coordinates":[144.56293,-37.68774]},"properties":{"c":"bus","n":"Barries Rd"}},{"type":"Feature","geometry":{"type":"Point","coordinates":[144.55521,-37.67688]},"properties":{"c":"bus","n":"Wedge Park Primary School/Cambrian Way"}},{"type":"Feature","geometry":{"type":"Point","coordinates":[144.56467,-37.67690]},"properties":{"c":"bus","n":"Edinburgh Pl/Westmelton Dr"}},{"type":"Feature","geometry":{"type":"Point","coordinates":[144.56460,-37.67701]},"properties":{"c":"bus","n":"Clendon Pl/Westmelton Dr"}},{"type":"Feature","geometry":{"type":"Point","coordinates":[144.56775,-37.67775]},"properties":{"c":"bus","n":"Melton West Primary School/Westmelton Dr"}},{"type":"Feature","geometry":{"type":"Point","coordinates":[144.56864,-37.67770]},"properties":{"c":"bus","n":"Melton West Community Centre/Westmelton Dr"}},{"type":"Feature","geometry":{"type":"Point","coordinates":[144.56973,-37.67725]},"properties":{"c":"bus","n":"Westmelton Dr/Coburns Rd"}},{"type":"Feature","geometry":{"type":"Point","coordinates":[144.56948,-37.67854]},"properties":{"c":"bus","n":null}},{"type":"Feature","geometry":{"type":"Point","coordinates":[144.56914,-37.67855]},"properties":{"c":"bus","n":null}},{"type":"Feature","geometry":{"type":"Point","coordinates":[144.56897,-37.67958]},"properties":{"c":"bus","n":null}},{"type":"Feature","geometry":{"type":"Point","coordinates":[144.56878,-37.68180]},"properties":{"c":"bus","n":null}},{"type":"Feature","geometry":{"type":"Point","coordinates":[144.56832,-37.68261]},"properties":{"c":"bus","n":null}},{"type":"Feature","geometry":{"type":"Point","coordinates":[144.57275,-37.68383]},"properties":{"c":"bus","n":"Joyce St/High St"}},{"type":"Feature","geometry":{"type":"Point","coordinates":[144.57247,-37.68417]},"properties":{"c":"bus","n":"Joyce St/High St"}},{"type":"Feature","geometry":{"type":"Point","coordinates":[144.56540,-37.68470]},"properties":{"c":"bus","n":"Woodgrove Shopping Centre/High Street"}},{"type":"Feature","geometry":{"type":"Point","coordinates":[144.56562,-37.68468]},"properties":{"c":"bus","n":"Woodgrove Shopping Centre/High Street"}},{"type":"Feature","geometry":{"type":"Point","coordinates":[144.56815,-37.68759]},"properties":{"c":"bus","n":"Coburns Rd/Barries Rd"}},{"type":"Feature","geometry":{"type":"Point","coordinates":[144.57082,-37.68803]},"properties":{"c":"bus","n":"Kinkora Rd/Barries Rd"}},{"type":"Feature","geometry":{"type":"Point","coordinates":[144.57098,-37.68791]},"properties":{"c":"bus","n":"Kinkora Rd/Barries Rd"}},{"type":"Feature","geometry":{"type":"Point","coordinates":[144.57762,-37.68152]},"properties":{"c":"bus","n":"Church St/O\u0027Neills Rd"}},{"type":"Feature","geometry":{"type":"Point","coordinates":[144.57787,-37.68194]},"properties":{"c":"bus","n":"Unitt St/O\u0027Neills Rd"}},{"type":"Feature","geometry":{"type":"Point","coordinates":[144.57971,-37.68216]},"properties":{"c":"bus","n":"Alexandra St/Unitt St"}},{"type":"Feature","geometry":{"type":"Point","coordinates":[144.58037,-37.68198]},"properties":{"c":"bus","n":"Alexandra St/Unitt St"}},{"type":"Feature","geometry":{"type":"Point","coordinates":[144.57976,-37.68339]},"properties":{"c":"bus","n":"Central Walk Shopping Centre/High St"}},{"type":"Feature","geometry":{"type":"Point","coordinates":[144.57927,-37.68356]},"properties":{"c":"bus","n":"Central Walk Shopping Centre/High St"}},{"type":"Feature","geometry":{"type":"Point","coordinates":[144.57644,-37.68869]},"properties":{"c":"bus","n":"Carter Rd/Barries Rd"}},{"type":"Feature","geometry":{"type":"Point","coordinates":[144.57757,-37.68927]},"properties":{"c":"bus","n":"Barries Rd/Station Rd"}},{"type":"Feature","geometry":{"type":"Point","coordinates":[144.57774,-37.68936]},"properties":{"c":"bus","n":"Barries Rd/Station Rd"}},{"type":"Feature","geometry":{"type":"Point","coordinates":[144.58179,-37.68934]},"properties":{"c":"bus","n":null}},{"type":"Feature","geometry":{"type":"Point","coordinates":[144.58166,-37.68917]},"properties":{"c":"bus","n":null}},{"type":"Feature","geometry":{"type":"Point","coordinates":[144.58294,-37.68227]},"properties":{"c":"bus","n":"Melton Bus Interchange/Palmerston St"}},{"type":"Feature","geometry":{"type":"Point","coordinates":[144.58314,-37.68231]},"properties":{"c":"bus","n":"Melton Bus Interchange/Palmerston St"}},{"type":"Feature","geometry":{"type":"Point","coordinates":[144.58698,-37.68283]},"properties":{"c":"bus","n":null}},{"type":"Feature","geometry":{"type":"Point","coordinates":[144.58719,-37.68303]},"properties":{"c":"bus","n":null}},{"type":"Feature","geometry":{"type":"Point","coordinates":[144.59579,-37.68431]},"properties":{"c":"bus","n":null}},{"type":"Feature","geometry":{"type":"Point","coordinates":[144.59567,-37.68444]},"properties":{"c":"bus","n":null}},{"type":"Feature","geometry":{"type":"Point","coordinates":[144.59805,-37.68592]},"properties":{"c":"bus","n":null}},{"type":"Feature","geometry":{"type":"Point","coordinates":[144.60212,-37.68884]},"properties":{"c":"bus","n":null}},{"type":"Feature","geometry":{"type":"Point","coordinates":[144.60186,-37.68897]},"properties":{"c":"bus","n":null}},{"type":"Feature","geometry":{"type":"Point","coordinates":[144.55563,-37.70059]},"properties":{"c":"bus","n":null}},{"type":"Feature","geometry":{"type":"Point","coordinates":[144.55553,-37.70071]},"properties":{"c":"bus","n":null}},{"type":"Feature","geometry":{"type":"Point","coordinates":[144.55945,-37.70105]},"properties":{"c":"bus","n":null}},{"type":"Feature","geometry":{"type":"Point","coordinates":[144.55951,-37.70118]},"properties":{"c":"bus","n":null}},{"type":"Feature","geometry":{"type":"Point","coordinates":[144.57389,-37.70964]},"properties":{"c":"bus","n":"Wilson Rd/Exford Rd"}},{"type":"Feature","geometry":{"type":"Point","coordinates":[144.57427,-37.70669]},"properties":{"c":"bus","n":"Northcott St/Exford Rd"}},{"type":"Feature","geometry":{"type":"Point","coordinates":[144.56303,-37.71214]},"properties":{"c":"bus","n":"Hume Avenue/Rees Road"}},{"type":"Feature","geometry":{"type":"Point","coordinates":[144.56285,-37.71246]},"properties":{"c":"bus","n":"Hume Avenue/Rees Road"}},{"type":"Feature","geometry":{"type":"Point","coordinates":[144.56797,-37.71144]},"properties":{"c":"bus","n":"Moss Street/Hume Avenue"}},{"type":"Feature","geometry":{"type":"Point","coordinates":[144.56795,-37.71132]},"properties":{"c":"bus","n":"Moss Street/Hume Avenue"}},{"type":"Feature","geometry":{"type":"Point","coordinates":[144.57098,-37.71382]},"properties":{"c":"bus","n":"Henty Street/Mitchell Road"}},{"type":"Feature","geometry":{"type":"Point","coordinates":[144.57137,-37.71377]},"properties":{"c":"bus","n":"Blaxland Road/Mitchell Road"}},{"type":"Feature","geometry":{"type":"Point","coordinates":[144.57166,-37.70888]},"properties":{"c":"bus","n":"St Anthony\u0027s Primary School/Wilson Rd"}},{"type":"Feature","geometry":{"type":"Point","coordinates":[144.57169,-37.70902]},"properties":{"c":"bus","n":"St Anthony\u0027s Primary School/Wilson Rd"}},{"type":"Feature","geometry":{"type":"Point","coordinates":[144.54854,-37.66777]},"properties":{"c":"bus","n":"Claret Ash Bvd/Arnolds Creek Bvd"}},{"type":"Feature","geometry":{"type":"Point","coordinates":[144.57087,-37.70341]},"properties":{"c":"station","n":"Melton"}},{"type":"Feature","geometry":{"type":"Point","coordinates":[144.56108,-37.68689]},"properties":{"c":"shops","n":"Woolworths"}},{"type":"Feature","geometry":{"type":"Point","coordinates":[144.56047,-37.68686]},"properties":{"c":"shops","n":"Aldi"}},{"type":"Feature","geometry":{"type":"Point","coordinates":[144.57426,-37.70173]},"properties":{"c":"shops","n":"Coles"}},{"type":"Feature","geometry":{"type":"Point","coordinates":[144.60408,-37.71255]},"properties":{"c":"station","n":"Cobblebank"}},{"type":"Feature","geometry":{"type":"Point","coordinates":[144.57071,-37.67111]},"properties":{"c":"bus","n":null}},{"type":"Feature","geometry":{"type":"Point","coordinates":[144.60426,-37.71296]},"properties":{"c":"bus","n":"Cobblebank Station/Coach Street"}},{"type":"Feature","geometry":{"type":"Point","coordinates":[144.59848,-37.71646]},"properties":{"c":"bus","n":"Astley Drive/Bridge Road"}},{"type":"Feature","geometry":{"type":"Point","coordinates":[144.59863,-37.71628]},"properties":{"c":"bus","n":"Astley Drive/Bridge Road"}},{"type":"Feature","geometry":{"type":"Point","coordinates":[144.59308,-37.71582]},"properties":{"c":"bus","n":"Atherstone Boulevard/Bridge Road"}},{"type":"Feature","geometry":{"type":"Point","coordinates":[144.59319,-37.71569]},"properties":{"c":"bus","n":"Ambervue Drive/Bridge Road"}},{"type":"Feature","geometry":{"type":"Point","coordinates":[144.58839,-37.71527]},"properties":{"c":"bus","n":"Wembley Avenue/Bridge Road"}},{"type":"Feature","geometry":{"type":"Point","coordinates":[144.58850,-37.71515]},"properties":{"c":"bus","n":"Alabaster Avenue/Bridge Road"}},{"type":"Feature","geometry":{"type":"Point","coordinates":[144.58591,-37.71498]},"properties":{"c":"bus","n":"Diamond Parade/Bridge Road"}},{"type":"Feature","geometry":{"type":"Point","coordinates":[144.58609,-37.71487]},"properties":{"c":"bus","n":"Diamond Parade/Bridge Road"}},{"type":"Feature","geometry":{"type":"Point","coordinates":[144.57824,-37.71490]},"properties":{"c":"bus","n":"Blamey Drive/Bridge Road"}},{"type":"Feature","geometry":{"type":"Point","coordinates":[144.57821,-37.71501]},"properties":{"c":"bus","n":"Blamey Drive/Bridge Road"}},{"type":"Feature","geometry":{"type":"Point","coordinates":[144.57362,-37.71449]},"properties":{"c":"bus","n":"Exford Road/Bridge Road"}},{"type":"Feature","geometry":{"type":"Point","coordinates":[144.57426,-37.71444]},"properties":{"c":"bus","n":"Exford Road/Bridge Road"}},{"type":"Feature","geometry":{"type":"Point","coordinates":[144.56382,-37.70722]},"properties":{"c":"bus","n":"Al Iman College/Rees Rd"}},{"type":"Feature","geometry":{"type":"Point","coordinates":[144.56391,-37.70759]},"properties":{"c":"bus","n":"Al Iman College/Rees Rd"}},{"type":"Feature","geometry":{"type":"Point","coordinates":[144.57082,-37.72217]},"properties":{"c":"shops","n":"Woolworths"}},{"type":"Feature","geometry":{"type":"Point","coordinates":[144.57110,-37.72195]},"properties":{"c":"health","n":"Chemist Warehouse"}},{"type":"Feature","geometry":{"type":"Point","coordinates":[144.60360,-37.68897]},"properties":{"c":"health","n":"Chemist Warehouse"}},{"type":"Feature","geometry":{"type":"Point","coordinates":[144.56511,-37.68575]},"properties":{"c":"health","n":"Priceline Pharmacy"}},{"type":"Feature","geometry":{"type":"Point","coordinates":[144.56521,-37.68471]},"properties":{"c":"bus","n":"Woodgrove Shopping Centre/High Street"}},{"type":"Feature","geometry":{"type":"Point","coordinates":[144.56499,-37.68473]},"properties":{"c":"bus","n":"Woodgrove Shopping Centre/High Street"}},{"type":"Feature","geometry":{"type":"Point","coordinates":[144.56477,-37.68474]},"properties":{"c":"bus","n":"Woodgrove Shopping Centre/High Street"}},{"type":"Feature","geometry":{"type":"Point","coordinates":[144.56458,-37.68475]},"properties":{"c":"bus","n":"Woodgrove Shopping Centre/High Street"}},{"type":"Feature","geometry":{"type":"Point","coordinates":[144.56435,-37.68478]},"properties":{"c":"bus","n":"Woodgrove Shopping Centre/High Street"}},{"type":"Feature","geometry":{"type":"Point","coordinates":[144.60225,-37.71403]},"properties":{"c":"shops","n":"Coles"}},{"type":"Feature","geometry":{"type":"Point","coordinates":[144.59800,-37.68622]},"properties":{"c":"bus","n":null}},{"type":"Feature","geometry":{"type":"Point","coordinates":[144.57025,-37.72146]},"properties":{"c":"health","n":"Melton South Medical Clinic"}},{"type":"Feature","geometry":{"type":"Point","coordinates":[144.56697,-37.68530]},"properties":{"c":"health","n":"Chemist Warehouse"}},{"type":"Feature","geometry":{"type":"Point","coordinates":[144.56101,-37.68645]},"properties":{"c":"health","n":"Pharmacy 4 Less"}},{"type":"Feature","geometry":{"type":"Point","coordinates":[144.57652,-37.68857]},"properties":{"c":"bus","n":"Fay St/Barries Rd"}},{"type":"Feature","geometry":{"type":"Point","coordinates":[144.56810,-37.68770]},"properties":{"c":"bus","n":"Coburns Rd/Barries Rd"}},{"type":"Feature","geometry":{"type":"Point","coordinates":[144.62879,-37.71377]},"properties":{"c":"shops","n":"IGA"}},{"type":"Feature","geometry":{"type":"Point","coordinates":[144.57247,-37.71711]},"properties":{"c":"bus","n":"Turf Club Bvd/Exford Rd"}},{"type":"Feature","geometry":{"type":"Point","coordinates":[144.57279,-37.72282]},"properties":{"c":"bus","n":"Elpis Rd/Exford Rd"}},{"type":"Feature","geometry":{"type":"Point","coordinates":[144.57286,-37.72390]},"properties":{"c":"bus","n":"Kingdom Bvd/Exford Rd"}},{"type":"Feature","geometry":{"type":"Point","coordinates":[144.58201,-37.68493]},"properties":{"c":"community","n":"Melton Library \u0026 Learning Hub"}},{"type":"Feature","geometry":{"type":"Point","coordinates":[144.56669,-37.65910]},"properties":{"c":"bus","n":"Sugar Berry Rise/Scarlet Oak Ave"}},{"type":"Feature","geometry":{"type":"Point","coordinates":[144.56842,-37.65955]},"properties":{"c":"bus","n":"Nodosa Gr/Scarlet Oak Ave"}},{"type":"Feature","geometry":{"type":"Point","coordinates":[144.57142,-37.65965]},"properties":{"c":"bus","n":"Coburns Rd/Scarlet Oak Ave"}},{"type":"Feature","geometry":{"type":"Point","coordinates":[144.57264,-37.66210]},"properties":{"c":"bus","n":"Highfield Way/Coburns Rd"}},{"type":"Feature","geometry":{"type":"Point","coordinates":[144.57081,-37.66460]},"properties":{"c":"bus","n":"Woodland Rise/Roslyn Park Dr"}},{"type":"Feature","geometry":{"type":"Point","coordinates":[144.56794,-37.66297]},"properties":{"c":"bus","n":"Stefan Dr/Roslyn Park Dr"}},{"type":"Feature","geometry":{"type":"Point","coordinates":[144.56449,-37.66326]},"properties":{"c":"bus","n":"Kim Lane/Roslyn Park Dr"}},{"type":"Feature","geometry":{"type":"Point","coordinates":[144.56400,-37.66449]},"properties":{"c":"bus","n":"Emerald Ct/Caitlyn Dr"}},{"type":"Feature","geometry":{"type":"Point","coordinates":[144.56539,-37.66609]},"properties":{"c":"bus","n":"Reidy Rise/Gamalite Dr"}},{"type":"Feature","geometry":{"type":"Point","coordinates":[144.56387,-37.66911]},"properties":{"c":"bus","n":"Galilee Bvd/Gamalite Dr"}},{"type":"Feature","geometry":{"type":"Point","coordinates":[144.56886,-37.65967]},"properties":{"c":"bus","n":"Nodosa Grove/Scarlet Oak Ave"}},{"type":"Feature","geometry":{"type":"Point","coordinates":[144.57124,-37.65976]},"properties":{"c":"bus","n":"Featherhead Way/Scarlet Oak Ave"}},{"type":"Feature","geometry":{"type":"Point","coordinates":[144.57258,-37.66172]},"properties":{"c":"bus","n":"Highfield Way/Coburns Rd"}},{"type":"Feature","geometry":{"type":"Point","coordinates":[144.57099,-37.66453]},"properties":{"c":"bus","n":"Woodland Rise/Roslyn Park Dr"}},{"type":"Feature","geometry":{"type":"Point","coordinates":[144.56793,-37.66289]},"properties":{"c":"bus","n":"Stefan Dr/Roslyn Park Dr"}},{"type":"Feature","geometry":{"type":"Point","coordinates":[144.56479,-37.66317]},"properties":{"c":"bus","n":"Kim Lane/Roslyn Park Dr"}},{"type":"Feature","geometry":{"type":"Point","coordinates":[144.56381,-37.66459]},"properties":{"c":"bus","n":"Emerald Ct/Caitlyn Dr"}},{"type":"Feature","geometry":{"type":"Point","coordinates":[144.56488,-37.66640]},"properties":{"c":"bus","n":"Reidy Rise/Gamalite Dr"}},{"type":"Feature","geometry":{"type":"Point","coordinates":[144.56369,-37.66909]},"properties":{"c":"bus","n":"Galilee Bvd/Gamalite Dr"}},{"type":"Feature","geometry":{"type":"Point","coordinates":[144.60235,-37.71337]},"properties":{"c":"bus","n":"Cobblebank Village/Coach St"}},{"type":"Feature","geometry":{"type":"Point","coordinates":[144.60230,-37.71338]},"properties":{"c":"bus","n":"Cobblebank Village/Coach St"}},{"type":"Feature","geometry":{"type":"Point","coordinates":[144.59925,-37.71977]},"properties":{"c":"bus","n":"Runcorn Cres/Ferris Rd"}},{"type":"Feature","geometry":{"type":"Point","coordinates":[144.59939,-37.72032]},"properties":{"c":"bus","n":"Alfred Rd/Ferris Rd"}},{"type":"Feature","geometry":{"type":"Point","coordinates":[144.60312,-37.72103]},"properties":{"c":"bus","n":"Everlasting Bvd/Alfred Rd"}},{"type":"Feature","geometry":{"type":"Point","coordinates":[144.60284,-37.72114]},"properties":{"c":"bus","n":"Everlasting Bvd/Alfred Rd"}},{"type":"Feature","geometry":{"type":"Point","coordinates":[144.60905,-37.72174]},"properties":{"c":"bus","n":"Adelong Bvd/Alfred Rd"}},{"type":"Feature","geometry":{"type":"Point","coordinates":[144.60901,-37.72184]},"properties":{"c":"bus","n":"Adelong Bvd/Alfred Rd"}},{"type":"Feature","geometry":{"type":"Point","coordinates":[144.61311,-37.72228]},"properties":{"c":"bus","n":"Morpeth Way/Alfred Rd"}},{"type":"Feature","geometry":{"type":"Point","coordinates":[144.61379,-37.72228]},"properties":{"c":"bus","n":"Morpeth Way/Alfred Rd"}},{"type":"Feature","geometry":{"type":"Point","coordinates":[144.61694,-37.72273]},"properties":{"c":"bus","n":"Mount Cottrell Rd/Alfred Rd"}},{"type":"Feature","geometry":{"type":"Point","coordinates":[144.61756,-37.72226]},"properties":{"c":"bus","n":"Alfred Rd/Mount Cottrell Rd"}},{"type":"Feature","geometry":{"type":"Point","coordinates":[144.61808,-37.71927]},"properties":{"c":"bus","n":"Lynwood Dr/Mount Cottrell Rd"}},{"type":"Feature","geometry":{"type":"Point","coordinates":[144.61807,-37.72024]},"properties":{"c":"bus","n":"Lynwood Dr/Mount Cottrell Rd"}},{"type":"Feature","geometry":{"type":"Point","coordinates":[144.61972,-37.71408]},"properties":{"c":"bus","n":"Baxterpark Dr/Mount Cottrell Rd"}},{"type":"Feature","geometry":{"type":"Point","coordinates":[144.61968,-37.71251]},"properties":{"c":"bus","n":"Baxterpark Dr/Mount Cottrell Rd"}},{"type":"Feature","geometry":{"type":"Point","coordinates":[144.62276,-37.70871]},"properties":{"c":"bus","n":"Wiltshire Boulevard Reserve/Wiltshire Bvd"}},{"type":"Feature","geometry":{"type":"Point","coordinates":[144.62271,-37.70878]},"properties":{"c":"bus","n":"Wiltshire Boulevard Reserve/Wiltshire Bvd"}},{"type":"Feature","geometry":{"type":"Point","coordinates":[144.62765,-37.71174]},"properties":{"c":"bus","n":"Dorchester St/Wiltshire Bvd"}},{"type":"Feature","geometry":{"type":"Point","coordinates":[144.62708,-37.71154]},"properties":{"c":"bus","n":"Ainsley Rd/Wiltshire Bvd"}},{"type":"Feature","geometry":{"type":"Point","coordinates":[144.62874,-37.71336]},"properties":{"c":"bus","n":"Central Square Shopping Centre"}},{"type":"Feature","geometry":{"type":"Point","coordinates":[144.62850,-37.71374]},"properties":{"c":"bus","n":"Central Square Shopping Centre"}},{"type":"Feature","geometry":{"type":"Point","coordinates":[144.62812,-37.71578]},"properties":{"c":"bus","n":"Baxterpark Dr/Tower St"}},{"type":"Feature","geometry":{"type":"Point","coordinates":[144.62799,-37.71645]},"properties":{"c":"bus","n":"Baxterpark Dr/Tower St"}},{"type":"Feature","geometry":{"type":"Point","coordinates":[144.62780,-37.71961]},"properties":{"c":"bus","n":"Whistle Dr/Tower St"}},{"type":"Feature","geometry":{"type":"Point","coordinates":[144.62893,-37.71986]},"properties":{"c":"bus","n":"Conductor Rd/Morningside Dr"}},{"type":"Feature","geometry":{"type":"Point","coordinates":[144.60229,-37.71331]},"properties":{"c":"bus","n":"Cobblebank Village/Coach St"}},{"type":"Feature","geometry":{"type":"Point","coordinates":[144.60224,-37.71340]},"properties":{"c":"bus","n":"Cobblebank Village/Coach St"}},{"type":"Feature","geometry":{"type":"Point","coordinates":[144.57384,-37.70267]},"properties":{"c":"health","n":"UFS"}},{"type":"Feature","geometry":{"type":"Point","coordinates":[144.57438,-37.70418]},"properties":{"c":"bus","n":"Exford Rd/Staughton St"}},{"type":"Feature","geometry":{"type":"Point","coordinates":[144.57445,-37.70667]},"properties":{"c":"bus","n":"Northcott St/Exford Rd"}},{"type":"Feature","geometry":{"type":"Point","coordinates":[144.57238,-37.71676]},"properties":{"c":"bus","n":"Turf Club Bvd/Exford Rd"}},{"type":"Feature","geometry":{"type":"Point","coordinates":[144.57371,-37.70954]},"properties":{"c":"bus","n":"Wilson Rd/Exford Rd"}},{"type":"Feature","geometry":{"type":"Point","coordinates":[144.56910,-37.70871]},"properties":{"c":"bus","n":"Staughton College/Wilson Rd"}},{"type":"Feature","geometry":{"type":"Point","coordinates":[144.56485,-37.70079]},"properties":{"c":"bus","n":"Brooklyn Rd/Coburns R"}},{"type":"Feature","geometry":{"type":"Point","coordinates":[144.56536,-37.69814]},"properties":{"c":"bus","n":"Campaspe Cres/Coburns Rd"}},{"type":"Feature","geometry":{"type":"Point","coordinates":[144.56570,-37.69632]},"properties":{"c":"bus","n":"Joy St/Coburns Rd"}},{"type":"Feature","geometry":{"type":"Point","coordinates":[144.56623,-37.69357]},"properties":{"c":"bus","n":"Richard Rd/Coburns Rd"}},{"type":"Feature","geometry":{"type":"Point","coordinates":[144.56754,-37.68697]},"properties":{"c":"bus","n":"Barries Rd/Coburns Rd"}},{"type":"Feature","geometry":{"type":"Point","coordinates":[144.56060,-37.68416]},"properties":{"c":"bus","n":"High St/James Cook Dr"}},{"type":"Feature","geometry":{"type":"Point","coordinates":[144.56236,-37.68192]},"properties":{"c":"bus","n":"West Melton Tennis Club/James Cook Dr"}},{"type":"Feature","geometry":{"type":"Point","coordinates":[144.56148,-37.67832]},"properties":{"c":"bus","n":"Empress Way/James Cook Dr"}},{"type":"Feature","geometry":{"type":"Point","coordinates":[144.55784,-37.67712]},"properties":{"c":"bus","n":"Watts Ct/Cambrian Way"}},{"type":"Feature","geometry":{"type":"Point","coordinates":[144.55381,-37.67595]},"properties":{"c":"bus","n":"Cambrian Way Preschool/54 Cambrian Way"}},{"type":"Feature","geometry":{"type":"Point","coordinates":[144.55600,-37.67518]},"properties":{"c":"bus","n":"Gloucester Way/Westmelton Dr"}},{"type":"Feature","geometry":{"type":"Point","coordinates":[144.55976,-37.67575]},"properties":{"c":"bus","n":"James Cook Dr/Westmelton Dr"}},{"type":"Feature","geometry":{"type":"Point","coordinates":[144.56997,-37.67438]},"properties":{"c":"bus","n":"Lancaster Way/Coburns Rd"}},{"type":"Feature","geometry":{"type":"Point","coordinates":[144.57296,-37.67307]},"properties":{"c":"bus","n":"Lagarna Dr/Centenary Ave"}},{"type":"Feature","geometry":{"type":"Point","coordinates":[144.57825,-37.67495]},"properties":{"c":"bus","n":"Melton Cemetery/O\u0027Neills Rd"}},{"type":"Feature","geometry":{"type":"Point","coordinates":[144.57752,-37.67878]},"properties":{"c":"bus","n":"Swan St/O\u0027Neills Rd"}},{"type":"Feature","geometry":{"type":"Point","coordinates":[144.57748,-37.67828]},"properties":{"c":"bus","n":"Cassia Rd/O\u0027Neills Rd"}},{"type":"Feature","geometry":{"type":"Point","coordinates":[144.57813,-37.67486]},"properties":{"c":"bus","n":"Melton Cemetery/O\u0027Neills Rd"}},{"type":"Feature","geometry":{"type":"Point","coordinates":[144.57270,-37.67334]},"properties":{"c":"bus","n":"Eagle Pl/Centenary Ave"}},{"type":"Feature","geometry":{"type":"Point","coordinates":[144.57023,-37.67448]},"properties":{"c":"bus","n":"Lancaster Way/Coburns Rd"}},{"type":"Feature","geometry":{"type":"Point","coordinates":[144.55961,-37.67582]},"properties":{"c":"bus","n":"James Cook Dr/Westmelton Dr"}},{"type":"Feature","geometry":{"type":"Point","coordinates":[144.55608,-37.67534]},"properties":{"c":"bus","n":"Gloucester Way/Westmelton Dr"}},{"type":"Feature","geometry":{"type":"Point","coordinates":[144.55742,-37.67696]},"properties":{"c":"bus","n":"Watts Ct/Cambrian Way"}},{"type":"Feature","geometry":{"type":"Point","coordinates":[144.56152,-37.67820]},"properties":{"c":"bus","n":"Empress Way/James Cook Dr"}},{"type":"Feature","geometry":{"type":"Point","coordinates":[144.56245,-37.68205]},"properties":{"c":"bus","n":"West Melton Tennis Club/James Cook Dr"}},{"type":"Feature","geometry":{"type":"Point","coordinates":[144.56078,-37.68408]},"properties":{"c":"bus","n":"High St/James Cook Dr"}},{"type":"Feature","geometry":{"type":"Point","coordinates":[144.56783,-37.68705]},"properties":{"c":"bus","n":"Barries Rd/Coburns Rd"}},{"type":"Feature","geometry":{"type":"Point","coordinates":[144.56637,-37.69468]},"properties":{"c":"bus","n":"Richard Rd/Coburns Rd"}},{"type":"Feature","geometry":{"type":"Point","coordinates":[144.56602,-37.69645]},"properties":{"c":"bus","n":"Joy St/Coburns Rd"}},{"type":"Feature","geometry":{"type":"Point","coordinates":[144.56564,-37.69848]},"properties":{"c":"bus","n":"Campaspe Cres/Coburns Rd"}},{"type":"Feature","geometry":{"type":"Point","coordinates":[144.56517,-37.70098]},"properties":{"c":"bus","n":"Brooklyn Rd/Coburns Rd"}},{"type":"Feature","geometry":{"type":"Point","coordinates":[144.56754,-37.70833]},"properties":{"c":"bus","n":"Staughton College/Wilson Rd"}},{"type":"Feature","geometry":{"type":"Point","coordinates":[144.59509,-37.65701]},"properties":{"c":"bus","n":"Archer Dr/Dalray Cres"}},{"type":"Feature","geometry":{"type":"Point","coordinates":[144.58314,-37.68237]},"properties":{"c":"bus","n":"Melton Bus Interchange/Palmerston St"}},{"type":"Feature","geometry":{"type":"Point","coordinates":[144.55921,-37.68619]},"properties":{"c":"bus","n":"High St/Barries Rd"}},{"type":"Feature","geometry":{"type":"Point","coordinates":[144.57662,-37.69524]},"properties":{"c":"bus","n":"Richard Rd/Station Rd"}},{"type":"Feature","geometry":{"type":"Point","coordinates":[144.57612,-37.69803]},"properties":{"c":"bus","n":"Garry St/Station Rd"}},{"type":"Feature","geometry":{"type":"Point","coordinates":[144.57543,-37.70150]},"properties":{"c":"bus","n":"McDonald St/Station Rd"}},{"type":"Feature","geometry":{"type":"Point","coordinates":[144.57522,-37.70162]},"properties":{"c":"bus","n":"First Ave/Station Rd"}},{"type":"Feature","geometry":{"type":"Point","coordinates":[144.57600,-37.69783]},"properties":{"c":"bus","n":"Garry St/Station Rd"}},{"type":"Feature","geometry":{"type":"Point","coordinates":[144.57642,-37.69541]},"properties":{"c":"bus","n":"Richard Rd/Station Rd"}},{"type":"Feature","geometry":{"type":"Point","coordinates":[144.55906,-37.68610]},"properties":{"c":"bus","n":"High St/Barries Rd"}},{"type":"Feature","geometry":{"type":"Point","coordinates":[144.54421,-37.66630]},"properties":{"c":"bus","n":"Arnolds Creek Primary School/Claret Ash Bvd"}},{"type":"Feature","geometry":{"type":"Point","coordinates":[144.54755,-37.66713]},"properties":{"c":"bus","n":"Leafy View Esp/Claret Ash Bvd"}},{"type":"Feature","geometry":{"type":"Point","coordinates":[144.55229,-37.67162]},"properties":{"c":"bus","n":"Argyll Cct/Bulmans Rd"}},{"type":"Feature","geometry":{"type":"Point","coordinates":[144.54460,-37.67239]},"properties":{"c":"bus","n":"Westlake Dr/Sovereign Bvd"}},{"type":"Feature","geometry":{"type":"Point","coordinates":[144.54391,-37.67542]},"properties":{"c":"bus","n":"Glenfield Ave/Westlake Dr"}},{"type":"Feature","geometry":{"type":"Point","coordinates":[144.54430,-37.67726]},"properties":{"c":"bus","n":"Sunderland Way/Westlake Dr"}},{"type":"Feature","geometry":{"type":"Point","coordinates":[144.54438,-37.67947]},"properties":{"c":"bus","n":"Meadow Glen Dr/Westlake Dr"}},{"type":"Feature","geometry":{"type":"Point","coordinates":[144.54723,-37.68201]},"properties":{"c":"bus","n":"Jonson Ave/Westlake Dr"}},{"type":"Feature","geometry":{"type":"Point","coordinates":[144.54966,-37.68289]},"properties":{"c":"bus","n":"Bulmans Rd/Westlake Dr"}},{"type":"Feature","geometry":{"type":"Point","coordinates":[144.55108,-37.68429]},"properties":{"c":"bus","n":"Helen Ct/Trethowan Ave"}},{"type":"Feature","geometry":{"type":"Point","coordinates":[144.55460,-37.68485]},"properties":{"c":"bus","n":"High St/Trethowan Ave"}},{"type":"Feature","geometry":{"type":"Point","coordinates":[144.55451,-37.68485]},"properties":{"c":"bus","n":"High St/Trethowan Ave"}},{"type":"Feature","geometry":{"type":"Point","coordinates":[144.55107,-37.68437]},"properties":{"c":"bus","n":"Helen Ct/Trethowan Ave"}},{"type":"Feature","geometry":{"type":"Point","coordinates":[144.54927,-37.68295]},"properties":{"c":"bus","n":"Bulmans Rd/Westlake Dr"}},{"type":"Feature","geometry":{"type":"Point","coordinates":[144.54738,-37.68230]},"properties":{"c":"bus","n":"Jonson Ave/Westlake Dr"}},{"type":"Feature","geometry":{"type":"Point","coordinates":[144.54449,-37.68014]},"properties":{"c":"bus","n":"Harrington Dr/Westlake Dr"}},{"type":"Feature","geometry":{"type":"Point","coordinates":[144.54418,-37.67721]},"properties":{"c":"bus","n":"Sunderland Way/Westlake Dr"}},{"type":"Feature","geometry":{"type":"Point","coordinates":[144.54404,-37.67425]},"properties":{"c":"bus","n":"Wetherby Pl/Westlake Dr"}},{"type":"Feature","geometry":{"type":"Point","coordinates":[144.54472,-37.67232]},"properties":{"c":"bus","n":"Westlake Dr/Sovereign Bvd"}},{"type":"Feature","geometry":{"type":"Point","coordinates":[144.55198,-37.67241]},"properties":{"c":"bus","n":"Argyll Cct/Bulmans Rd"}},{"type":"Feature","geometry":{"type":"Point","coordinates":[144.59063,-37.68372]},"properties":{"c":"openspace","n":"Hannah Watts Park"}},{"type":"Feature","geometry":{"type":"Point","coordinates":[144.57265,-37.69388]},"properties":{"c":"education","n":"Coburn Primary School"}},{"type":"Feature","geometry":{"type":"Point","coordinates":[144.54869,-37.69780]},"properties":{"c":"openspace","n":"Botanica Springs Park"}},{"type":"Feature","geometry":{"type":"Point","coordinates":[144.55810,-37.70610]},"properties":{"c":"openspace","n":"C. J. Melrose Memorial Reserve"}},{"type":"Feature","geometry":{"type":"Point","coordinates":[144.57252,-37.70656]},"properties":{"c":"openspace","n":"Mount Carberry Recreation Reserve"}},{"type":"Feature","geometry":{"type":"Point","coordinates":[144.56571,-37.70600]},"properties":{"c":"education","n":"Al Iman College"}},{"type":"Feature","geometry":{"type":"Point","coordinates":[144.59595,-37.68860]},"properties":{"c":"openspace","n":"Melton Botanic Garden"}},{"type":"Feature","geometry":{"type":"Point","coordinates":[144.55860,-37.68612]},"properties":{"c":"health","n":"Westcare Medical Centre"}},{"type":"Feature","geometry":{"type":"Point","coordinates":[144.56677,-37.68248]},"properties":{"c":"education","n":"Melton Secondary College"}},{"type":"Feature","geometry":{"type":"Point","coordinates":[144.56795,-37.67663]},"properties":{"c":"education","n":"Melton West Primary School"}},{"type":"Feature","geometry":{"type":"Point","coordinates":[144.55526,-37.67610]},"properties":{"c":"education","n":"Wedge Park Primary School"}},{"type":"Feature","geometry":{"type":"Point","coordinates":[144.56732,-37.66798]},"properties":{"c":"openspace","n":"Navan Park"}},{"type":"Feature","geometry":{"type":"Point","coordinates":[144.59222,-37.66780]},"properties":{"c":"openspace","n":"Little Blind Creek Reserve"}},{"type":"Feature","geometry":{"type":"Point","coordinates":[144.55255,-37.67619]},"properties":{"c":"openspace","n":"Cambrian Way Reserve"}},{"type":"Feature","geometry":{"type":"Point","coordinates":[144.56288,-37.68128]},"properties":{"c":"openspace","n":"West Melton Recreation Reserve"}},{"type":"Feature","geometry":{"type":"Point","coordinates":[144.58170,-37.67105]},"properties":{"c":"education","n":"Heathdale Christian College Melton Campus"}},{"type":"Feature","geometry":{"type":"Point","coordinates":[144.58467,-37.68118]},"properties":{"c":"education","n":"St Dominic\u0027s Primary School"}},{"type":"Feature","geometry":{"type":"Point","coordinates":[144.58683,-37.68049]},"properties":{"c":"education","n":"Melton Primary School"}},{"type":"Feature","geometry":{"type":"Point","coordinates":[144.58486,-37.67213]},"properties":{"c":"education","n":"Kurunjang Secondary College"}},{"type":"Feature","geometry":{"type":"Point","coordinates":[144.58592,-37.67112]},"properties":{"c":"education","n":"Kurunjang Primary School"}},{"type":"Feature","geometry":{"type":"Point","coordinates":[144.57501,-37.70810]},"properties":{"c":"education","n":"Melton South Primary School"}},{"type":"Feature","geometry":{"type":"Point","coordinates":[144.57674,-37.70832]},"properties":{"c":"openspace","n":"Melton South Recreation Reserve"}},{"type":"Feature","geometry":{"type":"Point","coordinates":[144.57254,-37.70987]},"properties":{"c":"education","n":"St Anthony\u0027s Primary School"}},{"type":"Feature","geometry":{"type":"Point","coordinates":[144.56864,-37.70742]},"properties":{"c":"education","n":"Staughton College"}},{"type":"Feature","geometry":{"type":"Point","coordinates":[144.54957,-37.67843]},"properties":{"c":"education","n":"St Catherine of Siena Primary School"}},{"type":"Feature","geometry":{"type":"Point","coordinates":[144.54984,-37.67632]},"properties":{"c":"education","n":"Catholic Regional College Melton"}},{"type":"Feature","geometry":{"type":"Point","coordinates":[144.54915,-37.67828]},"properties":{"c":"openspace","n":"Arthur Westlake Memorial Reserve"}},{"type":"Feature","geometry":{"type":"Point","coordinates":[144.57854,-37.68545]},"properties":{"c":"openspace","n":"Harry Allen Reserve"}},{"type":"Feature","geometry":{"type":"Point","coordinates":[144.57021,-37.68721]},"properties":{"c":"openspace","n":"Rosina Drive Reserve"}},{"type":"Feature","geometry":{"type":"Point","coordinates":[144.58225,-37.68794]},"properties":{"c":"openspace","n":"Ryan Court Park"}},{"type":"Feature","geometry":{"type":"Point","coordinates":[144.56015,-37.69965]},"properties":{"c":"education","n":"Melton Christian College"}},{"type":"Feature","geometry":{"type":"Point","coordinates":[144.57191,-37.69308]},"properties":{"c":"openspace","n":"Blackwood Drive Recreation Reserve"}},{"type":"Feature","geometry":{"type":"Point","coordinates":[144.57401,-37.67019]},"properties":{"c":"openspace","n":"Centenary Park"}},{"type":"Feature","geometry":{"type":"Point","coordinates":[144.57884,-37.68302]},"properties":{"c":"shops","n":"Aldi"}},{"type":"Feature","geometry":{"type":"Point","coordinates":[144.57727,-37.68459]},"properties":{"c":"health","n":"Melton Medical and Dental Centre"}},{"type":"Feature","geometry":{"type":"Point","coordinates":[144.57436,-37.70138]},"properties":{"c":"openspace","n":"Kurrajong Reserve"}},{"type":"Feature","geometry":{"type":"Point","coordinates":[144.55262,-37.67583]},"properties":{"c":"openspace","n":"Cambrian way playground"}},{"type":"Feature","geometry":{"type":"Point","coordinates":[144.54961,-37.68013]},"properties":{"c":"openspace","n":"West Lake Playground"}},{"type":"Feature","geometry":{"type":"Point","coordinates":[144.58985,-37.68389]},"properties":{"c":"openspace","n":"Hannah Watts Maze"}},{"type":"Feature","geometry":{"type":"Point","coordinates":[144.58455,-37.71686]},"properties":{"c":"openspace","n":"Bridge Road Recreation Reserve"}},{"type":"Feature","geometry":{"type":"Point","coordinates":[144.58982,-37.67839]},"properties":{"c":"openspace","n":"Little Blind Creek Reserve"}},{"type":"Feature","geometry":{"type":"Point","coordinates":[144.56876,-37.71017]},"properties":{"c":"openspace","n":"Bill Cahill Reserve"}},{"type":"Feature","geometry":{"type":"Point","coordinates":[144.58753,-37.68602]},"properties":{"c":"openspace","n":"The Willows Historic Park"}},{"type":"Feature","geometry":{"type":"Point","coordinates":[144.55447,-37.70775]},"properties":{"c":"openspace","n":"Arnolds Creek Reserve"}},{"type":"Feature","geometry":{"type":"Point","coordinates":[144.54258,-37.66694]},"properties":{"c":"education","n":"Arnolds Creek Primary School"}},{"type":"Feature","geometry":{"type":"Point","coordinates":[144.58423,-37.70849]},"properties":{"c":"openspace","n":"Settlers Creek Park"}},{"type":"Feature","geometry":{"type":"Point","coordinates":[144.59887,-37.69667]},"properties":{"c":"openspace","n":"tabcorp park"}},{"type":"Feature","geometry":{"type":"Point","coordinates":[144.59900,-37.71676]},"properties":{"c":"openspace","n":"Atherstone Adventure Park"}},{"type":"Feature","geometry":{"type":"Point","coordinates":[144.62624,-37.71196]},"properties":{"c":"education","n":"St Padre Pio Catholic Primary School"}},{"type":"Feature","geometry":{"type":"Point","coordinates":[144.54143,-37.68680]},"properties":{"c":"education","n":"OneSchool Global Melton Campus"}},{"type":"Feature","geometry":{"type":"Point","coordinates":[144.58903,-37.71654]},"properties":{"c":"education","n":"Strathtulloh Primary School"}},{"type":"Feature","geometry":{"type":"Point","coordinates":[144.57734,-37.68649]},"properties":{"c":"education","n":"Djerriwarrh Community College"}},{"type":"Feature","geometry":{"type":"Point","coordinates":[144.56719,-37.68059]},"properties":{"c":"education","n":"Melton Specialist School"}},{"type":"Feature","geometry":{"type":"Point","coordinates":[144.62666,-37.71491]},"properties":{"c":"education","n":"Thornhill Park Primary School"}},{"type":"Feature","geometry":{"type":"Point","coordinates":[144.54504,-37.70198]},"properties":{"c":"education","n":"Binap Primary School"}},{"type":"Feature","geometry":{"type":"Point","coordinates":[144.59532,-37.71481]},"properties":{"c":"education","n":"Aspire Childcare Centre - Cobblebank"}},{"type":"Feature","geometry":{"type":"Point","coordinates":[144.60726,-37.71946]},"properties":{"c":"education","n":"St Francis Catholic College - Cobblebank Campus"}},{"type":"Feature","geometry":{"type":"Point","coordinates":[144.60107,-37.71956]},"properties":{"c":"education","n":"Kolorer College"}},{"type":"Feature","geometry":{"type":"Point","coordinates":[144.62877,-37.71526]},"properties":{"c":"education","n":"Thornhill Montessori Early Learning Centre"}},{"type":"Feature","geometry":{"type":"Point","coordinates":[144.56485,-37.72135]},"properties":{"c":"education","n":"Murrum Primary School"}},{"type":"Feature","geometry":{"type":"Point","coordinates":[144.62955,-37.71300]},"properties":{"c":"education","n":"Aspire Early Education \u0026 Kindergarten Thornhill Park"}},{"type":"Feature","geometry":{"type":"Point","coordinates":[144.62925,-37.71523]},"properties":{"c":"health","n":"Thornhill Park Medical Centre and Dental Clinic"}},{"type":"Feature","geometry":{"type":"Point","coordinates":[144.58976,-37.70719]},"properties":{"c":"openspace","n":"Abey Road WBCW Reserve"}},{"type":"Feature","geometry":{"type":"Point","coordinates":[144.57313,-37.70233]},"properties":{"c":"health","n":"Station Medical Centre"}},{"type":"Feature","geometry":{"type":"Point","coordinates":[144.56577,-37.71987]},"properties":{"c":"education","n":"Weir Views Kindergarten"}},{"type":"Feature","geometry":{"type":"Point","coordinates":[144.57393,-37.65927]},"properties":{"c":"openspace","n":"Pennyroyal Park"}},{"type":"Feature","geometry":{"type":"Point","coordinates":[144.55742,-37.66739]},"properties":{"c":"openspace","n":"Marlo Drive Reserve"}}]}